# From MPEC 2020-FB5
84P/Giclas,e,7.5528,108.1420,281.6822,3.550156,0.1473442,0.51572517,270.0323,06/12.0/2025,2000,g  9.5,8.0
# From unp
85D/Boethin,e,4.1729,65.2966,333.0902,5.046336,0.0869440,0.77588567,154.5559,06/12.0/2025,2000,g  6.5,8.0
# From MPEC 2022-YB4
86P/Wild,e,15.5059,72.0961,181.0631,3.646766,0.1415279,0.36273430,173.5197,06/12.0/2025,2000,g 11.0,6.0
# From MPEC 2020-SI8
87P/Bus,e,2.6682,184.9385,51.8872,4.360035,0.1082603,0.21677901,209.5634,06/12.0/2025,2000,g  7.2,10.0
# From MPC184417
88P/Howell,e,4.3820,56.6687,235.8816,3.108438,0.1798418,0.56323113,309.6821,06/12.0/2025,2000,g 11.0,6.0
# From MPC182887
89P/Russell,e,12.0713,41.3448,250.4255,3.750903,0.1356752,0.40747898,60.0217,06/12.0/2025,2000,g 11.5,6.0
# From MPEC 2022-K19
90P/Gehrels,e,9.6394,13.1866,29.1874,6.054176,0.0661640,0.51062588,192.5395,06/12.0/2025,2000,g  8.5,6.0
# From MPEC 2023-VM5
91P/Russell,e,16.1912,242.4247,357.3365,4.137823,0.1170971,0.25718315,216.0350,06/12.0/2025,2000,g  7.5,6.0
# From MPEC 2014-J58
92P/Sanguin,e,19.4793,181.3631,163.7804,5.344356,0.0797739,0.66005003,299.1009,06/12.0/2025,2000,g 12.0,6.0
# From MPEC 2024-R10
93P/Lovas,e,12.2093,339.5512,75.0227,4.374183,0.1077355,0.61396009,324.9955,06/12.0/2025,2000,g  9.5,6.0
# From MPEC 2024-R10
94P/Russell,e,6.1875,70.8478,92.3750,3.510038,0.1498775,0.36599108,112.8310,06/12.0/2025,2000,g  9.0,6.0
# From MPC 75717
95P/Chiron,e,6.9283,209.1927,339.3547,13.69798,0.0194410,0.37833537,209.6622,06/12.0/2025,2000,g  6.5,2.0
# From MPC182887
96P/Machholz,e,57.5861,93.9627,14.7370,3.031058,0.1867724,0.96170384,161.1239,06/12.0/2025,2000,g 13.0,4.8
# From MPC106348
96P-B/Machholz,e,57.5037,14.5901,94.0155,3.030008,0.1868694,0.96173402,161.2332,06/12.0/2025,2000,g 13.0,4.8
# From MPC103849
96P-C/Machholz,e,58.5311,94.3495,15.5380,3.011920,0.1885553,0.95889850,359.8715,07/14.0/2012,2000,g  9.0,4.0
# From MPEC 2024-GJ3
97P/Metcalf-Brewington,e,17.9383,184.0742,230.1962,4.769871,0.0946116,0.45995312,114.6716,06/12.0/2025,2000,g  5.5,6.0
# From MPEC 2021-W31
98P/Takamizawa,e,10.6473,114.5095,157.7272,3.781138,0.1340511,0.56668857,216.9876,06/12.0/2025,2000,g  9.0,8.0
# From MPEC 2024-R10
99P/Kowal,e,4.3391,28.0656,174.5383,6.093918,0.0655178,0.22874890,75.9973,06/12.0/2025,2000,g  4.5,6.0
# From MPEC 2023-OA6
100P/Hartley,e,25.5674,37.6857,181.9260,3.430343,0.1551307,0.41135795,160.8440,06/12.0/2025,2000,g  9.0,8.0
# From MPEC 2024-R10
101P/Chernykh,e,5.0485,116.1240,277.9819,5.817412,0.0702440,0.59561213,138.8708,06/12.0/2025,2000,g 10.0,4.8
# From MPC105241
101P-B/Chernykh,e,5.0502,278.5076,115.6017,5.832957,0.0699634,0.59582331,137.0728,06/12.0/2025,2000,g  9.0,4.0
# From MPEC 2022-C56
102P/Shoemaker,e,25.8544,339.3962,20.6753,3.820165,0.1320021,0.45600131,211.5317,06/12.0/2025,2000,g  6.5,8.0
# From MPC184417
103P/Hartley,e,13.6079,219.7566,181.3272,3.475630,0.1521086,0.69350982,92.5693,06/12.0/2025,2000,g  8.5,8.0
# From MPEC 2023-G31
104P/Kowal,e,5.7010,207.1840,227.3027,3.208674,0.1714809,0.66590124,213.7633,06/12.0/2025,2000,g 16.0,4.0
# From MPC184417
105P/SingerBrewster,e,9.1673,192.3937,46.3319,3.473057,0.1522777,0.40914387,21.3565,06/12.0/2025,2000,g 11.5,6.0
# From MPEC 2024-R10
106P/Schuster,e,19.5337,48.8659,353.7971,3.768295,0.1347369,0.59353726,187.6755,06/12.0/2025,2000,g 14.0,4.8
# From MPEC 2015-M77
107P/Wilson-Harrington,e,2.7986,266.7277,95.5173,2.626030,0.2316086,0.63096602,236.8800,06/12.0/2025,2000,g  9.0,4.0
# From MPEC 2022-P82
108P/Ciffreo,e,11.4324,50.3013,354.5321,3.743815,0.1360606,0.55569313,186.4809,06/12.0/2025,2000,g  8.0,12.0
# From  105, 420
109P/Swift-Tuttle,e,113.1119,139.7061,153.2781,26.20349,0.0073479,0.96287873,87.1566,06/12.0/2025,2000,g  4.0,6.0
# From MPEC 2023-KD6
110P/Hartley,e,11.7114,287.4820,167.5596,3.603636,0.1440763,0.31921634,191.8301,06/12.0/2025,2000,g  1.0,12.0
# From MPC 75718
111P/Helin-Roman-Crockett,e,4.2262,89.8101,1.4308,4.152987,0.1164564,0.10716855,169.2342,06/12.0/2025,2000,g  5.0,8.0
# From MPEC 2021-S45
112P/Urata-Niijima,e,24.2025,31.8128,21.5506,3.522460,0.1490854,0.59083835,290.4069,06/12.0/2025,2000,g 14.0,6.0
# From MPEC 2024-JU4
113P/Spitaler,e,5.2876,306.6216,115.7358,3.696067,0.1387057,0.41967443,153.4355,06/12.0/2025,2000,g 13.5,4.0
# From MPEC 2023-A50
114P/Wiseman-Skiff,e,18.3039,271.0265,172.8102,3.539959,0.1479813,0.55613957,291.9357,06/12.0/2025,2000,g 11.5,6.0
# From MPEC 2023-J29
115P/Maury,e,11.6810,175.9839,120.9151,4.271108,0.1116589,0.51785876,198.8973,06/12.0/2025,2000,g 10.5,6.0
# From MPEC 2024-RQ6
116P/Wild,e,3.6045,20.9597,173.1586,3.486036,0.1514280,0.37068229,160.7043,06/12.0/2025,2000,g  2.5,10.0
# From MPC182887
117P/Helin-Roman-Alu,e,8.6803,58.8215,224.6858,4.116883,0.1179917,0.25278656,125.7384,06/12.0/2025,2000,g  2.5,8.0
# From MPEC 2024-MB8
118P/Shoemaker-Levy,e,10.0916,142.0549,314.9501,3.348969,0.1608190,0.45380572,149.6031,06/12.0/2025,2000,g 12.0,4.0
# From MPEC 2024-R10
119P/Parker-Hartley,e,7.3928,104.5428,322.2692,3.809286,0.1325680,0.38811359,137.1519,06/12.0/2025,2000,g  3.5,8.0
# From MPEC 2022-CN4
120P/Mueller,e,8.4815,358.7055,36.7835,3.969900,0.1246048,0.37416345,186.4641,06/12.0/2025,2000,g 12.0,4.0
# From MPC184417
121P/Shoemaker-Holt,e,20.1621,94.1051,11.9626,4.589260,0.1002513,0.18671013,71.4101,06/12.0/2025,2000,g  6.5,8.0
# From MPC 75718
122P/de Vico,e,86.0272,79.7417,13.0039,17.63343,0.0133106,0.96259889,144.3704,06/12.0/2025,2000,g  7.5,5.2
# From MPEC 2021-F20
123P/West-Hartley,e,15.2798,45.9010,103.9544,3.883702,0.1287761,0.44453161,299.8357,06/12.0/2025,2000,g 12.2,4.0
# From MPEC 2024-UQ8
124P/Mrkos,e,31.4043,359.9879,185.1172,3.376975,0.1588226,0.48642072,300.1835,06/12.0/2025,2000,g 13.5,2.8
# From MPEC 2024-UA9
125P/Spacewatch,e,9.9858,153.1496,87.1091,3.127818,0.1781730,0.51198772,82.2749,06/12.0/2025,2000,g 13.0,6.0
# From MPEC 2024-JU4
126P/IRAS,e,45.8714,357.8574,356.5604,5.627697,0.0738258,0.69603280,52.2651,06/12.0/2025,2000,g  6.0,8.0
# From MPEC 2024-R10
127P/Holt-Olmstead,e,14.2955,13.6163,6.3396,3.454360,0.1535157,0.35875903,159.1924,06/12.0/2025,2000,g 11.0,6.0
# From MPC 89014
128P/Shoemaker-Holt,e,4.3709,214.3210,210.4919,4.482291,0.1038614,0.32236774,318.4799,06/12.0/2025,2000,g  8.5,4.0
# From MPC184417
129P/Shoemaker-Levy,e,3.4414,184.8495,307.8697,4.294015,0.1107666,0.08592505,102.0783,06/12.0/2025,2000,g 11.0,4.0
# From MPC184417
130P/McNaught-Hughes,e,6.0599,70.1802,246.3096,3.387667,0.1580713,0.46124235,66.8198,06/12.0/2025,2000,g 10.0,6.0
# From MPEC 2025-A40
131P/Mueller,e,7.3618,214.1363,179.2418,3.674878,0.1399071,0.34475747,325.2159,06/12.0/2025,2000,g 11.0,4.0
# From MPEC 2024-BE0
132P/Helin-Roman-Alu,e,5.3778,173.9789,216.5087,3.892386,0.1283454,0.56403331,167.7544,06/12.0/2025,2000,g 11.0,6.0
# From MPC 94676
133P/Elst-Pizarro,e,1.3899,160.1011,131.8705,3.163078,0.1752021,0.15566274,69.7124,06/12.0/2025,2000,g 15.4,2.0
# From MPC 89012
134P/Kowal-Vavrova,e,4.3331,201.9921,18.6582,6.273432,0.0627258,0.58547535,255.1492,06/12.0/2025,2000,g 11.5,4.0
# From MPEC 2024-C04
135P/Shoemaker-Levy,e,6.0630,213.0196,22.3764,3.801564,0.1329721,0.29348323,154.6276,06/12.0/2025,2000,g  7.0,8.0
# From MPC182888
136P/Mueller,e,9.4273,137.4202,225.3175,4.185529,0.1151008,0.29316658,18.3651,06/12.0/2025,2000,g 11.0,4.0
# From MPEC 2023-J29
137P/Shoemaker-Levy,e,4.8598,232.9271,141.2177,4.523705,0.1024384,0.57297522,242.8795,06/12.0/2025,2000,g 11.0,4.0
# From MPEC 2016-U66
138P/Shoemaker-Levy,e,10.0998,309.2718,95.6877,3.617094,0.1432730,0.53154871,319.1241,06/12.0/2025,2000,g 15.0,6.0
# From MPEC 2020-HN5
139P/Vaisala-Oterma,e,2.3374,242.1799,165.9776,4.513661,0.1027805,0.24830858,280.7779,06/12.0/2025,2000,g  9.5,4.0
# From MPEC 2015-E14
140P/Bowell-Skiff,e,3.6965,343.3733,172.1556,6.413156,0.0606871,0.69518218,220.0275,06/12.0/2025,2000,g 11.5,6.0
# From MPEC 2024-R10
141P/Machholz,e,13.9618,241.7761,153.6439,3.057044,0.1843960,0.73589276,301.9202,06/12.0/2025,2000,g 12.0,12.0
# From MPEC 2015-KD9
141P-A/Machholz,e,13.9417,153.5041,241.9275,3.057270,0.1843756,0.73591085,301.8595,06/12.0/2025,2000,g 12.0,12.0
# From MPC 24216
141P-B/Machholz,e,13.9856,153.5802,241.8165,3.055638,0.1845233,0.73567162,303.2858,06/12.0/2025,2000,g  9.0,4.0
# From MPC 37026
141P-D/Machholz,e,13.8335,153.2300,242.1760,3.065789,0.1836076,0.73685600,297.4659,06/12.0/2025,2000,g  9.0,4.0
# From MPEC 2015-R12
141P-E/Machholz,e,12.8152,246.1856,149.2667,3.012914,0.1884620,0.75023267,359.9529,09/19.0/1994,2000,g  9.0,4.0
# From MPEC 2015-R12
141P-F/Machholz,e,12.7898,246.1881,149.2374,3.010224,0.1887147,0.75000946,359.9630,09/19.0/1994,2000,g  9.0,4.0
# From MPEC 2015-R12
141P-G/Machholz,e,12.8259,246.3146,149.0784,3.005818,0.1891298,0.74964304,359.9802,09/19.0/1994,2000,g  9.0,4.0
# From MPC 95735
141P-H/Machholz,e,12.8431,246.0900,149.4500,3.008012,0.1889230,0.74682218,359.9270,08/24.0/2015,2000,g 18.5,4.0
# From MPEC 2022-SU8
141P-I/Machholz,e,13.9417,153.4589,241.9373,3.047733,0.1852417,0.73513927,303.3886,06/12.0/2025,2000,g 17.5,4.0
# From MPEC 2024-C04
142P/Ge-Wang,e,12.2448,175.9596,174.0636,5.003446,0.0880644,0.49596269,131.4541,06/12.0/2025,2000,g  8.5,6.0
# From MPC182888
143P/Kowal-Mrkos,e,5.4481,242.4963,304.3309,4.778087,0.0943676,0.38300901,306.9743,06/12.0/2025,2000,g 13.5,2.0
# From MPEC 2024-YC7
144P/Kushida,e,3.9317,242.9246,216.3596,3.833729,0.1313022,0.63496573,66.0685,06/12.0/2025,2000,g  8.5,8.0
# From MPC108598
145P/Shoemaker-Levy,e,11.2765,26.7937,10.3796,4.130490,0.1174091,0.54247059,332.5375,06/12.0/2025,2000,g 13.5,4.0
# From MPC184418
146P/Shoemaker-LINEAR,e,23.1179,53.3581,317.0440,4.025455,0.1220342,0.64757938,37.9017,06/12.0/2025,2000,g 15.0,4.0
# From MPEC 2024-UQ8
147P/Kushida-Muramatsu,e,2.3115,91.6674,348.6042,4.009769,0.1227510,0.21179865,67.8220,06/12.0/2025,2000,g 14.0,4.0
# From MPEC 2024-JU4
148P/Anderson-LINEAR,e,3.6589,89.1952,8.0806,3.620189,0.1430893,0.55038828,156.4990,06/12.0/2025,2000,g 16.0,2.0
# From MPEC 2023-J29
